[{"OBJECT_NAME":"STARLINK-6042","OBJECT_ID":"2023-078AT","EPOCH":"2026-03-09T22:26:13.300224","MEAN_MOTION":14.98333415,"ECCENTRICITY":0.00021339,"INCLINATION":69.9982,"RA_OF_ASC_NODE":273.9199,"ARG_OF_PERICENTER":272.1987,"MEAN_ANOMALY":87.8928,"EPHEMERIS_TYPE":0,"CLASSIFICATION_TYPE":"U","NORAD_CAT_ID":56808,"ELEMENT_SET_NO":999,"REV_AT_EPOCH":15445,"BSTAR":3.7160668e-5,"MEAN_MOTION_DOT":3.51e-6,"MEAN_MOTION_DDOT":0},{"OBJECT_NAME":"DELTA 1 DEB","OBJECT_ID":"1972-058EG","EPOCH":"2026-03-09T15:29:57.375744","MEAN_MOTION":14.93143945,"ECCENTRICITY":0.0071537,"INCLINATION":98.4418,"RA_OF_ASC_NODE":299.7647,"ARG_OF_PERICENTER":185.1751,"MEAN_ANOMALY":174.8735,"EPHEMERIS_TYPE":0,"CLASSIFICATION_TYPE":"U","NORAD_CAT_ID":8314,"ELEMENT_SET_NO":999,"REV_AT_EPOCH":83297,"BSTAR":0.00043799,"MEAN_MOTION_DOT":4.734e-5,"MEAN_MOTION_DDOT":0}]
